{"type": "FeatureCollection", "features": [ {"type": "Feature", "properties": {"norad_id": 30570, "name": "FENGYUN 1C DEB", "group": "fengyun-1c-debris", "lat": -54.136979939607166, "lon": 45.231702575323844, "alt_km": 869.3458008584967, "timestamp": "2025-12-26T19:22:39.184127+00:00", "meta": {"OBJECT_NAME": "FENGYUN 1C DEB", "OBJECT_ID": "1999-025ALL", "EPOCH": "2025-12-26T15:07:52.830048", "MEAN_MOTION": 14.14293056, "ECCENTRICITY": 0.00358863, "INCLINATION": 98.7139, "RA_OF_ASC_NODE": 32.8104, "ARG_OF_PERICENTER": 172.4272, "MEAN_ANOMALY": 311.9672, "EPHEMERIS_TYPE": 0, "CLASSIFICATION_TYPE": "U", "NORAD_CAT_ID": 30570, "ELEMENT_SET_NO": 999, "REV_AT_EPOCH": 97194, "BSTAR": 0.00046450027, "MEAN_MOTION_DOT": 8.5e-06, "MEAN_MOTION_DDOT": 0}, "tle": {"line1": "1 30570U 99025ALL 25360.63047257  .00000850  00000+0  46450-3 0  9994", "line2": "2 30570  98.7139  32.8104 0035886 172.4272 311.9672 14.14293056971941"}}, "geometry": {"type": "Point", "coordinates": [45.231702575323844, -54.136979939607166]}}, {"type": "Feature", "properties": {"norad_id": 30571, "name": "FENGYUN 1C DEB", "group": "fengyun-1c-debris", "lat": 58.78096307886522, "lon": 11.933107174966777, "alt_km": 861.8208518453321, "timestamp": "2025-12-26T19:22:39.184137+00:00", "meta": {"OBJECT_NAME": "FENGYUN 1C DEB", "OBJECT_ID": "1999-025ALM", "EPOCH": "2025-12-26T14:34:53.807808", "MEAN_MOTION": 14.10708551, "ECCENTRICITY": 0.00213617, "INCLINATION": 98.7304, "RA_OF_ASC_NODE": 26.4258, "ARG_OF_PERICENTER": 193.8735, "MEAN_ANOMALY": 291.983, "EPHEMERIS_TYPE": 0, "CLASSIFICATION_TYPE": "U", "NORAD_CAT_ID": 30571, "ELEMENT_SET_NO": 999, "REV_AT_EPOCH": 97082, "BSTAR": 0.00029436816, "MEAN_MOTION_DOT": 4.84e-06, "MEAN_MOTION_DDOT": 0}, "tle": {"line1": "1 30571U 99025ALM 25360.60756722  .00000484  00000+0  29437-3 0  9995", "line2": "2 30571  98.7304  26.4258 0021361 193.8735 291.9830 14.10708551970825"}}, "geometry": {"type": "Point", "coordinates": [11.933107174966777, 58.78096307886522]}}, {"type": "Feature", "properties": {"norad_id": 30572, "name": "FENGYUN 1C DEB", "group": "fengyun-1c-debris", "lat": -55.784606225907204, "lon": -163.0700885451545, "alt_km": 855.2994702502874, "timestamp": "2025-12-26T19:22:39.184147+00:00", "meta": {"OBJECT_NAME": "FENGYUN 1C DEB", "OBJECT_ID": "1999-025ALN", "EPOCH": "2025-12-26T15:25:22.591776", "MEAN_MOTION": 14.08933815, "ECCENTRICITY": 0.00210932, "INCLINATION": 98.7708, "RA_OF_ASC_NODE": 29.8923, "ARG_OF_PERICENTER": 252.5596, "MEAN_ANOMALY": 228.9286, "EPHEMERIS_TYPE": 0, "CLASSIFICATION_TYPE": "U", "NORAD_CAT_ID": 30572, "ELEMENT_SET_NO": 999, "REV_AT_EPOCH": 96957, "BSTAR": 0.0001898475, "MEAN_MOTION_DOT": 2.86e-06, "MEAN_MOTION_DDOT": 0}, "tle": {"line1": "1 30572U 99025ALN 25360.64262259  .00000286  00000+0  18985-3 0  9993", "line2": "2 30572  98.7708  29.8923 0021093 252.5596 228.9286 14.08933815969575"}}, "geometry": {"type": "Point", "coordinates": [-163.0700885451545, -55.784606225907204]}}, {"type": "Feature", "properties": {"norad_id": 30573, "name": "FENGYUN 1C DEB", "group": "fengyun-1c-debris", "lat": 56.095445762030124, "lon": 24.996832319404703, "alt_km": 904.7506578436914, "timestamp": "2025-12-26T19:22:39.184157+00:00", "meta": {"OBJECT_NAME": "FENGYUN 1C DEB", "OBJECT_ID": "1999-025ALP", "EPOCH": "2025-12-26T02:23:10.549824", "MEAN_MOTION": 14.13928512, "ECCENTRICITY": 0.00890165, "INCLINATION": 99.226, "RA_OF_ASC_NODE": 38.2612, "ARG_OF_PERICENTER": 236.2423, "MEAN_ANOMALY": 179.4124, "EPHEMERIS_TYPE": 0, "CLASSIFICATION_TYPE": "U", "NORAD_CAT_ID": 30573, "ELEMENT_SET_NO": 999, "REV_AT_EPOCH": 96386, "BSTAR": 0.0017363391, "MEAN_MOTION_DOT": 3.375e-05, "MEAN_MOTION_DDOT": 0}, "tle": {"line1": "1 30573U 99025ALP 25360.09942766  .00003375  00000+0  17363-2 0  9991", "line2": "2 30573  99.2260  38.2612 0089016 236.2423 179.4124 14.13928512963862"}}, "geometry": {"type": "Point", "coordinates": [24.996832319404703, 56.095445762030124]}}, {"type": "Feature", "properties": {"norad_id": 30574, "name": "FENGYUN 1C DEB", "group": "fengyun-1c-debris", "lat": -46.285445410301875, "lon": 173.98628050585774, "alt_km": 817.3378430646517, "timestamp": "2025-12-26T19:22:39.184179+00:00", "meta": {"OBJECT_NAME": "FENGYUN 1C DEB", "OBJECT_ID": "1999-025ALQ", "EPOCH": "2025-12-25T10:28:43.135104", "MEAN_MOTION": 13.77586034, "ECCENTRICITY": 0.0220298, "INCLINATION": 99.3007, "RA_OF_ASC_NODE": 162.7748, "ARG_OF_PERICENTER": 313.926, "MEAN_ANOMALY": 44.3892, "EPHEMERIS_TYPE": 0, "CLASSIFICATION_TYPE": "U", "NORAD_CAT_ID": 30574, "ELEMENT_SET_NO": 999, "REV_AT_EPOCH": 93943, "BSTAR": 0.0023552, "MEAN_MOTION_DOT": 2.765e-05, "MEAN_MOTION_DDOT": 0}, "tle": {"line1": "1 30574U 99025ALQ 25359.43661036  .00002765  00000+0  23552-2 0  9995", "line2": "2 30574  99.3007 162.7748 0220298 313.9260  44.3892 13.77586034939433"}}, "geometry": {"type": "Point", "coordinates": [173.98628050585774, -46.285445410301875]}}, {"type": "Feature", "properties": {"norad_id": 30575, "name": "FENGYUN 1C DEB", "group": "fengyun-1c-debris", "lat": 12.963908926334145, "lon": 90.58557602174174, "alt_km": 798.1240424658527, "timestamp": "2025-12-26T19:22:39.184191+00:00", "meta": {"OBJECT_NAME": "FENGYUN 1C DEB", "OBJECT_ID": "1999-025ALR", "EPOCH": "2025-12-26T06:15:41.842080", "MEAN_MOTION": 14.40146733, "ECCENTRICITY": 0.00547193, "INCLINATION": 99.1686, "RA_OF_ASC_NODE": 92.1315, "ARG_OF_PERICENTER": 196.8955, "MEAN_ANOMALY": 224.6007, "EPHEMERIS_TYPE": 0, "CLASSIFICATION_TYPE": "U", "NORAD_CAT_ID": 30575, "ELEMENT_SET_NO": 999, "REV_AT_EPOCH": 98412, "BSTAR": 0.0010936081, "MEAN_MOTION_DOT": 3.467e-05, "MEAN_MOTION_DDOT": 0}, "tle": {"line1": "1 30575U 99025ALR 25360.26090095  .00003467  00000+0  10936-2 0  9992", "line2": "2 30575  99.1686  92.1315 0054719 196.8955 224.6007 14.40146733984129"}}, "geometry": {"type": "Point", "coordinates": [90.58557602174174, 12.963908926334145]}}, {"type": "Feature", "properties": {"norad_id": 30577, "name": "FENGYUN 1C DEB", "group": "fengyun-1c-debris", "lat": 39.75477509406742, "lon": 27.031518082164418, "alt_km": 871.8182646502837, "timestamp": "2025-12-26T19:22:39.184202+00:00", "meta": {"OBJECT_NAME": "FENGYUN 1C DEB", "OBJECT_ID": "1999-025ALT", "EPOCH": "2025-12-26T09:03:05.175936", "MEAN_MOTION": 14.11167923, "ECCENTRICITY": 0.00289723, "INCLINATION": 98.7693, "RA_OF_ASC_NODE": 33.9885, "ARG_OF_PERICENTER": 242.5575, "MEAN_ANOMALY": 133.1652, "EPHEMERIS_TYPE": 0, "CLASSIFICATION_TYPE": "U", "NORAD_CAT_ID": 30577, "ELEMENT_SET_NO": 999, "REV_AT_EPOCH": 96977, "BSTAR": 0.00049940168, "MEAN_MOTION_DOT": 8.6e-06, "MEAN_MOTION_DDOT": 0}, "tle": {"line1": "1 30577U 99025ALT 25360.37714324  .00000860  00000+0  49940-3 0  9996", "line2": "2 30577  98.7693  33.9885 0028972 242.5575 133.1652 14.11167923969774"}}, "geometry": {"type": "Point", "coordinates": [27.031518082164418, 39.75477509406742]}}, {"type": "Feature", "properties": {"norad_id": 30579, "name": "FENGYUN 1C DEB", "group": "fengyun-1c-debris", "lat": -52.068973167396, "lon": 36.54722519771925, "alt_km": 900.3442003853224, "timestamp": "2025-12-26T19:22:39.184212+00:00", "meta": {"OBJECT_NAME": "FENGYUN 1C DEB", "OBJECT_ID": "1999-025ALV", "EPOCH": "2025-12-26T07:45:26.762688", "MEAN_MOTION": 14.05264134, "ECCENTRICITY": 0.00535809, "INCLINATION": 98.8056, "RA_OF_ASC_NODE": 24.605, "ARG_OF_PERICENTER": 66.0227, "MEAN_ANOMALY": 313.5999, "EPHEMERIS_TYPE": 0, "CLASSIFICATION_TYPE": "U", "NORAD_CAT_ID": 30579, "ELEMENT_SET_NO": 999, "REV_AT_EPOCH": 96648, "BSTAR": 0.00019208525, "MEAN_MOTION_DOT": 2.72e-06, "MEAN_MOTION_DDOT": 0}, "tle": {"line1": "1 30579U 99025ALV 25360.32322642  .00000272  00000+0  19209-3 0  9993", "line2": "2 30579  98.8056  24.6050 0053580  66.0227 313.5999 14.05264134966485"}}, "geometry": {"type": "Point", "coordinates": [36.54722519771925, -52.068973167396]}}, {"type": "Feature", "properties": {"norad_id": 30594, "name": "FENGYUN 1C DEB", "group": "fengyun-1c-debris", "lat": 63.081334523806355, "lon": 55.92384843228771, "alt_km": 959.4833488661916, "timestamp": "2025-12-26T19:22:39.184223+00:00", "meta": {"OBJECT_NAME": "FENGYUN 1C DEB", "OBJECT_ID": "1999-025ALZ", "EPOCH": "2025-12-26T08:39:21.441312", "MEAN_MOTION": 14.17353474, "ECCENTRICITY": 0.01930128, "INCLINATION": 99.1504, "RA_OF_ASC_NODE": 216.9554, "ARG_OF_PERICENTER": 277.6525, "MEAN_ANOMALY": 80.2768, "EPHEMERIS_TYPE": 0, "CLASSIFICATION_TYPE": "U", "NORAD_CAT_ID": 30594, "ELEMENT_SET_NO": 999, "REV_AT_EPOCH": 97772, "BSTAR": 0.00020999811, "MEAN_MOTION_DOT": 4.59e-06, "MEAN_MOTION_DDOT": 0}, "tle": {"line1": "1 30594U 99025ALZ 25360.36066483  .00000459  00000+0  21000-3 0  9991", "line2": "2 30594  99.1504 216.9554 0193012 277.6525  80.2768 14.17353474977725"}}, "geometry": {"type": "Point", "coordinates": [55.92384843228771, 63.081334523806355]}}, {"type": "Feature", "properties": {"norad_id": 30596, "name": "FENGYUN 1C DEB", "group": "fengyun-1c-debris", "lat": -42.25001094182515, "lon": 170.445802140033, "alt_km": 621.7251159649113, "timestamp": "2025-12-26T19:22:39.184233+00:00", "meta": {"OBJECT_NAME": "FENGYUN 1C DEB", "OBJECT_ID": "1999-025AMB", "EPOCH": "2025-12-24T23:04:02.212608", "MEAN_MOTION": 14.34388847, "ECCENTRICITY": 0.02471633, "INCLINATION": 98.4138, "RA_OF_ASC_NODE": 356.3727, "ARG_OF_PERICENTER": 252.5052, "MEAN_ANOMALY": 163.1278, "EPHEMERIS_TYPE": 0, "CLASSIFICATION_TYPE": "U", "NORAD_CAT_ID": 30596, "ELEMENT_SET_NO": 999, "REV_AT_EPOCH": 98736, "BSTAR": 0.00025002681, "MEAN_MOTION_DOT": 9.38e-06, "MEAN_MOTION_DDOT": 0}, "tle": {"line1": "1 30596U 99025AMB 25358.96113672  .00000938  00000+0  25003-3 0  9998", "line2": "2 30596  98.4138 356.3727 0247163 252.5052 163.1278 14.34388847987366"}}, "geometry": {"type": "Point", "coordinates": [170.445802140033, -42.25001094182515]}}]}